COSMOS 2456 [GLONASS-M] 
1 36111U 09070A   26086.46425047  .00000041  00000+0  00000+0 0  9995
2 36111  64.9641  73.7582 0006535 309.8449 251.0676  2.13103415126682
COSMOS 2457 [GLONASS-M] 
1 36112U 09070B   26085.09286998  .00000040  00000+0  00000+0 0  9993
2 36112  64.9488  73.6506 0001624 196.4354 160.5699  2.13100904126652
COSMOS 2460 [GLONASS-M] 
1 36402U 10007C   26084.39211837 -.00000030  00000+0  00000+0 0  9999
2 36402  65.4675 317.3041 0002062  36.6538 143.8601  2.13106133124943
NAVSTAR 65 (USA 213)    
1 36585U 10022A   26087.71716311 -.00000041  00000+0  00000+0 0  9996
2 36585  54.2836 211.8024 0127061  66.0086 316.4344  2.00558387115985
BEIDOU-2 IGSO-1         
1 36828U 10036A   26078.94574244 -.00000103  00000+0  00000+0 0  9992
2 36828  54.2916 163.7709 0054955 219.8858 238.0541  1.00248068 57204
BEIDOU-2 G4             
1 37210U 10057A   26087.86165144 -.00000129  00000+0  00000+0 0  9995
2 37210   3.4481  69.3915 0007946 213.4556  13.6278  1.00270961 56486
BEIDOU-2 IGSO-2         
1 37256U 10068A   26078.93917145 -.00000176  00000+0  00000+0 0  9993
2 37256  47.7058 272.9336 0047798 212.7858 135.9365  1.00254021 55890
BEIDOU-2 IGSO-3         
1 37384U 11013A   26085.80669791 -.00000176  00000+0  00000+0 0  9991
2 37384  62.3016  40.9294 0034198 190.2272 350.7783  1.00287208 54832
GSAT-8                  
1 37605U 11022A   26087.91217831  .00000066  00000+0  00000+0 0  9992
2 37605   1.9242  82.7914 0006579 219.7093 267.2709  1.00273151 52415
BEIDOU-2 IGSO-4         
1 37763U 11038A   26087.66258249 -.00000109  00000+0  00000+0 0  9993
2 37763  54.5871 166.4040 0156581 231.4212 120.2889  1.00260433 53838
GSAT0101 (GALILEO-PFM)  
1 37846U 11060A   26086.31314158 -.00000097  00000+0  00000+0 0  9999
2 37846  57.0197 343.9840 0004117  13.5470 346.4977  1.70475647 89720
GSAT0102 (GALILEO-FM2)  
1 37847U 11060B   26087.70478072 -.00000099  00000+0  00000+0 0  9992
2 37847  57.0201 343.9462 0005116  21.5560 158.0911  1.70475653 89751
COSMOS 2476 [GLONASS-M] 
1 37867U 11064A   26081.32240285  .00000034  00000+0  00000+0 0  9991
2 37867  65.2205  75.8028 0025128 241.8014 242.7933  2.13103886111916
COSMOS 2477 [GLONASS-M] 
1 37868U 11064B   26087.25601953  .00000043  00000+0  00000+0 0  9993
2 37868  65.2312  75.6808 0022004 243.8544 293.4081  2.13102715112031
COSMOS 2475 [GLONASS-M] 
1 37869U 11064C   26087.78867443  .00000041  00000+0  00000+0 0  9998
2 37869  65.2381  75.6837 0027951 255.2552 286.1030  2.13101469112052
BEIDOU-2 IGSO-5         
1 37948U 11073A   26087.49184589 -.00000156  00000+0  00000+0 0  9995
2 37948  47.8262 272.5386 0109314 220.7131 324.4481  1.00266601 52329
LUCH-5A                 
1 37951U 11074B   26087.79170778 -.00000063  00000+0  00000+0 0  9995
2 37951   8.5510  74.9754 0003232 271.7532 291.4452  1.00269816 52242
